{
  "type": "FeatureCollection",
  "features": [
    {
      "type": "Feature",
      "properties": {
        "norad_id": 66858,
        "name": "STARLINK-35118",
        "group": "last-30-days",
        "lat": -36.692315868060106,
        "lon": -8.150668805094716,
        "alt_km": 304.7365270174241,
        "timestamp": "2025-12-13T07:35:40.338540+00:00",
        "meta_object_name": "STARLINK-35118",
        "meta_object_id": "2025-281L",
        "meta_epoch": "2025-12-12T20:00:01.999872",
        "meta_mean_motion": 15.90978536,
        "meta_eccentricity": 0.00018119,
        "meta_inclination": 43.0012,
        "meta_ra_of_asc_node": 121.7511,
        "meta_arg_of_pericenter": 282.2743,
        "meta_mean_anomaly": 69.5718,
        "meta_ephemeris_type": 0,
        "meta_classification_type": "U",
        "meta_norad_cat_id": 66858,
        "meta_element_set_no": 999,
        "meta_rev_at_epoch": 130,
        "meta_bstar": -0.0035372512,
        "meta_mean_motion_dot": -0.01032197,
        "meta_mean_motion_ddot": 0,
        "tle_line1": "1 66858U 25281L   25346.83335648 -.01032197  00000+0 -35373-2 0  9998",
        "tle_line2": "2 66858  43.0012 121.7511 0001811 282.2743  69.5718 15.90978536  1305"
      },
      "geometry": {
        "type": "Point",
        "coordinates": [
          -8.150668805094716,
          -36.692315868060106
        ]
      }
    },
    {
      "type": "Feature",
      "properties": {
        "norad_id": 66859,
        "name": "STARLINK-35646",
        "group": "last-30-days",
        "lat": -37.81576559090149,
        "lon": -4.859733971965962,
        "alt_km": 304.61237387860547,
        "timestamp": "2025-12-13T07:35:40.338550+00:00",
        "meta_object_name": "STARLINK-35646",
        "meta_object_id": "2025-281M",
        "meta_epoch": "2025-12-12T20:00:01.999872",
        "meta_mean_motion": 15.91043522,
        "meta_eccentricity": 0.00018941,
        "meta_inclination": 43.0011,
        "meta_ra_of_asc_node": 121.7444,
        "meta_arg_of_pericenter": 280.2527,
        "meta_mean_anomaly": 74.3813,
        "meta_ephemeris_type": 0,
        "meta_classification_type": "U",
        "meta_norad_cat_id": 66859,
        "meta_element_set_no": 999,
        "meta_rev_at_epoch": 141,
        "meta_bstar": -0.0036873926,
        "meta_mean_motion_dot": -0.01074394,
        "meta_mean_motion_ddot": 0,
        "tle_line1": "1 66859U 25281M   25346.83335648 -.01074394  00000+0 -36874-2 0  9991",
        "tle_line2": "2 66859  43.0011 121.7444 0001894 280.2527  74.3813 15.91043522  1410"
      },
      "geometry": {
        "type": "Point",
        "coordinates": [
          -4.859733971965962,
          -37.81576559090149
        ]
      }
    },
    {
      "type": "Feature",
      "properties": {
        "norad_id": 66860,
        "name": "STARLINK-35987",
        "group": "last-30-days",
        "lat": -41.96211574171413,
        "lon": 13.495427858652056,
        "alt_km": 304.50689657134444,
        "timestamp": "2025-12-13T07:35:40.338563+00:00",
        "meta_object_name": "STARLINK-35987",
        "meta_object_id": "2025-281N",
        "meta_epoch": "2025-12-12T20:00:01.999872",
        "meta_mean_motion": 15.91251416,
        "meta_eccentricity": 0.00017528,
        "meta_inclination": 43.0011,
        "meta_ra_of_asc_node": 121.7076,
        "meta_arg_of_pericenter": 279.8025,
        "meta_mean_anomaly": 89.2992,
        "meta_ephemeris_type": 0,
        "meta_classification_type": "U",
        "meta_norad_cat_id": 66860,
        "meta_element_set_no": 999,
        "meta_rev_at_epoch": 142,
        "meta_bstar": -0.0041647193,
        "meta_mean_motion_dot": -0.0137512,
        "meta_mean_motion_ddot": 0.00053718174,
        "tle_line1": "1 66860U 25281N   25346.83335648 -.01375120  53718-3 -41647-2 0  9996",
        "tle_line2": "2 66860  43.0011 121.7076 0001752 279.8025  89.2992 15.91251416  1420"
      },
      "geometry": {
        "type": "Point",
        "coordinates": [
          13.495427858652056,
          -41.96211574171413
        ]
      }
    },
    {
      "type": "Feature",
      "properties": {
        "norad_id": 66861,
        "name": "STARLINK-35991",
        "group": "last-30-days",
        "lat": -39.80622753579471,
        "lon": 2.1469669948073395,
        "alt_km": 304.6911351406734,
        "timestamp": "2025-12-13T07:35:40.338572+00:00",
        "meta_object_name": "STARLINK-35991",
        "meta_object_id": "2025-281P",
        "meta_epoch": "2025-12-12T20:00:01.999872",
        "meta_mean_motion": 15.91165179,
        "meta_eccentricity": 0.00017094,
        "meta_inclination": 43.0013,
        "meta_ra_of_asc_node": 121.7298,
        "meta_arg_of_pericenter": 280.5299,
        "meta_mean_anomaly": 79.8192,
        "meta_ephemeris_type": 0,
        "meta_classification_type": "U",
        "meta_norad_cat_id": 66861,
        "meta_element_set_no": 999,
        "meta_rev_at_epoch": 142,
        "meta_bstar": -0.0040449549,
        "meta_mean_motion_dot": -0.01330132,
        "meta_mean_motion_ddot": 0.00050501595,
        "tle_line1": "1 66861U 25281P   25346.83335648 -.01330132  50502-3 -40450-2 0  9990",
        "tle_line2": "2 66861  43.0013 121.7298 0001709 280.5299  79.8192 15.91165179  1420"
      },
      "geometry": {
        "type": "Point",
        "coordinates": [
          2.1469669948073395,
          -39.80622753579471
        ]
      }
    },
    {
      "type": "Feature",
      "properties": {
        "norad_id": 66862,
        "name": "STARLINK-35974",
        "group": "last-30-days",
        "lat": -38.91769075682479,
        "lon": -1.2138697219356152,
        "alt_km": 304.58921911878406,
        "timestamp": "2025-12-13T07:35:40.338581+00:00",
        "meta_object_name": "STARLINK-35974",
        "meta_object_id": "2025-281Q",
        "meta_epoch": "2025-12-12T20:00:01.999872",
        "meta_mean_motion": 15.91115992,
        "meta_eccentricity": 0.0001885,
        "meta_inclination": 43.0011,
        "meta_ra_of_asc_node": 121.7369,
        "meta_arg_of_pericenter": 278.5307,
        "meta_mean_anomaly": 79.1148,
        "meta_ephemeris_type": 0,
        "meta_classification_type": "U",
        "meta_norad_cat_id": 66862,
        "meta_element_set_no": 999,
        "meta_rev_at_epoch": 131,
        "meta_bstar": -0.0039222815,
        "meta_mean_motion_dot": -0.01287026,
        "meta_mean_motion_ddot": 0.0004752353,
        "tle_line1": "1 66862U 25281Q   25346.83335648 -.01287026  47524-3 -39223-2 0  9990",
        "tle_line2": "2 66862  43.0011 121.7369 0001885 278.5307  79.1148 15.91115992  1310"
      },
      "geometry": {
        "type": "Point",
        "coordinates": [
          -1.2138697219356152,
          -38.91769075682479
        ]
      }
    },
    {
      "type": "Feature",
      "properties": {
        "norad_id": 66863,
        "name": "STARLINK-36134",
        "group": "last-30-days",
        "lat": -40.80583937808039,
        "lon": 6.612983842991273,
        "alt_km": 304.7744762332577,
        "timestamp": "2025-12-13T07:35:40.338590+00:00",
        "meta_object_name": "STARLINK-36134",
        "meta_object_id": "2025-281R",
        "meta_epoch": "2025-12-12T20:00:01.999872",
        "meta_mean_motion": 15.91200386,
        "meta_eccentricity": 0.00016438,
        "meta_inclination": 43.0015,
        "meta_ra_of_asc_node": 121.721,
        "meta_arg_of_pericenter": 283.7399,
        "meta_mean_anomaly": 80.1413,
        "meta_ephemeris_type": 0,
        "meta_classification_type": "U",
        "meta_norad_cat_id": 66863,
        "meta_element_set_no": 999,
        "meta_rev_at_epoch": 142,
        "meta_bstar": -0.0041612285,
        "meta_mean_motion_dot": -0.01370384,
        "meta_mean_motion_ddot": 0.00053353653,
        "tle_line1": "1 66863U 25281R   25346.83335648 -.01370384  53354-3 -41612-2 0  9994",
        "tle_line2": "2 66863  43.0015 121.7210 0001643 283.7399  80.1413 15.91200386  1422"
      },
      "geometry": {
        "type": "Point",
        "coordinates": [
          6.612983842991273,
          -40.80583937808039
        ]
      }
    },
    {
      "type": "Feature",
      "properties": {
        "norad_id": 66864,
        "name": "STARLINK-36070",
        "group": "last-30-days",
        "lat": -41.41642805812831,
        "lon": 9.909219950897917,
        "alt_km": 304.6120983147339,
        "timestamp": "2025-12-13T07:35:40.338599+00:00",
        "meta_object_name": "STARLINK-36070",
        "meta_object_id": "2025-281S",
        "meta_epoch": "2025-12-12T20:00:01.999872",
        "meta_mean_motion": 15.91223318,
        "meta_eccentricity": 0.00017071,
        "meta_inclination": 43.0015,
        "meta_ra_of_asc_node": 121.7143,
        "meta_arg_of_pericenter": 281.2908,
        "meta_mean_anomaly": 85.1095,
        "meta_ephemeris_type": 0,
        "meta_classification_type": "U",
        "meta_norad_cat_id": 66864,
        "meta_element_set_no": 999,
        "meta_rev_at_epoch": 145,
        "meta_bstar": -0.0041346008,
        "meta_mean_motion_dot": -0.0136332,
        "meta_mean_motion_ddot": 0.00052862505,
        "tle_line1": "1 66864U 25281S   25346.83335648 -.01363320  52863-3 -41346-2 0  9995",
        "tle_line2": "2 66864  43.0015 121.7143 0001707 281.2908  85.1095 15.91223318  1452"
      },
      "geometry": {
        "type": "Point",
        "coordinates": [
          9.909219950897917,
          -41.41642805812831
        ]
      }
    }
  ]
}